SES-1                   
1 36516U 10016A   23163.89746795 -.00000114  00000+0  00000+0 0  9994
2 36516   0.0142 334.3341 0002513 106.8908  41.8110  1.00271819 48011
COSMOS 2463             
1 36519U 10017A   23163.92307722  .00000078  00000+0  69888-4 0  9997
2 36519  82.9600 338.0361 0035012 304.1837 220.9793 13.71510591657106
ASTRA 3B                
1 36581U 10021A   23163.85054187  .00000137  00000+0  00000+0 0  9999
2 36581   0.0591 324.8993 0004314 120.3380 145.3399  1.00272262 47846
COMSATBW-2              
1 36582U 10021B   23164.06347578  .00000088  00000+0  00000+0 0  9998
2 36582   0.0145 337.5869 0002409 118.6778 200.8419  1.00271545 47954
NAVSTAR 65 (USA 213)    
1 36585U 10022A   23164.08127295 -.00000032  00000+0  00000+0 0  9996
2 36585  54.6012 252.9519 0108782  59.7046 293.9706  2.00557596 95523
BEIDOU-2 G3             
1 36590U 10024A   23163.89424552 -.00000135  00000+0  00000+0 0  9992
2 36590   2.0106  54.6638 0009990 356.9026 250.8699  1.00269457 47738
BADR-5                  
1 36592U 10025A   23163.63597122  .00000144  00000+0  00000+0 0  9990
2 36592   0.0581 120.4598 0004796 353.6101  41.5534  1.00273073 42185
SJ-12                   
1 36596U 10027A   23164.09693762  .00003765  00000+0  30388-3 0  9992
2 36596  97.7411 154.0017 0008272 219.3536 140.7088 15.00445940709068
TANDEM-X                
1 36605U 10030A   23163.59876858  .00001558  00000+0  77349-4 0  9997
2 36605  97.4462 171.0492 0001795  93.0650 267.0790 15.19151487719553
COMS 1                  
1 36744U 10032A   23163.87136674 -.00000345  00000+0  00000+0 0  9998
2 36744   1.9850  88.7924 0000814 357.2679 256.6962  1.00270683 40051
ARABSAT-5A              
1 36745U 10032B   23163.85193650  .00000153  00000+0  00000+0 0  9990
2 36745   0.0628  45.7568 0005347  38.5005 153.8370  1.00269925 47617
ECHOSTAR 15             
1 36792U 10034A   23164.08097955 -.00000281  00000+0  00000+0 0  9994
2 36792   0.0148 311.6061 0001653 130.3547 146.6659  1.00269584 47360
CARTOSAT-2B             
1 36795U 10035A   23164.06702225  .00001108  00000+0  15786-3 0  9998
2 36795  97.9105 224.4973 0014089 152.5061 207.6898 14.78712940697359
AISSAT 1                
1 36797U 10035C   23163.81247248  .00001938  00000+0  21355-3 0  9991
2 36797  98.2274   6.3592 0011976  78.4997 281.7563 14.88744068700020
ALSAT 2A                
1 36798U 10035D   23164.05866642  .00001051  00000+0  17869-3 0  9995
2 36798  97.8191 196.6446 0001701 103.3940 256.7457 14.71054993691875
TISAT 1                 
1 36799U 10035E   23163.86598352  .00005566  00000+0  49767-3 0  9991
2 36799  98.1387  33.3301 0011006 358.7103   1.4086 14.96269636701582
BEIDOU-2 IGSO-1         
1 36828U 10036A   23163.46173389 -.00000049  00000+0  00000+0 0  9995
2 36828  54.2341 172.9341 0038165 192.3324 169.0649  1.00293050 47198
NILESAT 201             
1 36830U 10037A   23163.77254267 -.00000058  00000+0  00000+0 0  9998
2 36830   0.0133 123.9763 0004136 345.4702  62.4763  1.00270597 47335
RASCOM-QAF 1R           
1 36831U 10037B   23163.84644513  .00000018  00000+0  00000+0 0  9999
2 36831   0.0130  72.2714 0005678  13.9154 122.3249  1.00271081 47261
YAOGAN 10               
1 36834U 10038A   23164.07838626  .00000859  00000+0  11531-3 0  9997
2 36834  97.9649 178.1635 0001763  87.3110 348.7363 14.81901610694170
AEHF-1 (USA 214)        
1 36868U 10039A   23163.55985612  .00000023  00000+0  00000+0 0  9993
2 36868   5.4404  82.0621 0006397  22.3581   1.7018  1.00271678 42628
TIANHUI 1               
1 36985U 10040A   23163.91356676  .00010951  00000+0  34594-3 0  9997
2 36985  97.6245  35.7710 0027801 110.1655 250.2580 15.32622606712090
COSMOS 2467             
1 37152U 10043A   23164.09617480  .00000038  00000+0  20285-3 0  9997
2 37152  82.4587  33.1469 0002229  41.4773 127.0456 12.42926682578884
STRELA 3                
1 37153U 10043B   23163.73667995  .00000013  00000+0  25107-4 0  9996
2 37153  82.4594  43.8916 0007116 321.1807  38.8759 12.40755709577897
COSMOS 2468             
1 37154U 10043C   23163.69925910  .00000025  00000+0  10471-3 0  9996
2 37154  82.4625  31.2548 0013699 185.4194 239.9951 12.43690585579149
QZS-1 (MICHIBIKI-1)     
1 37158U 10045A   23163.78190065 -.00000111  00000+0  00000+0 0  9997
2 37158  42.7280 128.4355 0764308 270.6260 283.1710  1.00276448 46709
YAOGAN 11               
1 37165U 10047A   23164.17321999  .00001271  00000+0  18313-3 0  9990
2 37165  98.4031 321.1116 0038223 160.5009 199.7672 14.77736961685385
ZHEDA PIXING 1B         
1 37166U 10047B   23164.03978491  .00002030  00000+0  25480-3 0  9998
2 37166  97.8059 134.4665 0021273 296.9513  62.9528 14.83094774687248
ZHEDA PIXING 1C         
1 37167U 10047C   23164.08863416  .00002002  00000+0  25227-3 0  9992
2 37167  97.8384 133.8891 0020907 299.5174  60.3955 14.82950569687203
SBSS (USA 216)          
1 37168U 10048A   23164.10624454  .00000823  00000+0  10892-3 0  9995
2 37168  97.9019  21.8000 0001538  59.7351 101.9915 14.82542672687176
SHIJIAN-6 04A (SJ-6 04A)
1 37179U 10051A   23164.22767595  .00004753  00000+0  40336-3 0  9990
2 37179  97.7937 150.8046 0025969  14.5594 345.6371 14.98146755691302
SHIJIAN-6 04B (SJ-6 04B)
1 37180U 10051B   23164.05917049  .00001216  00000+0  11714-3 0  9993
2 37180  97.8052 149.2291 0012492  30.5813 329.6133 14.94744088691099
XM-5                    
1 37185U 10053A   23163.67955420 -.00000024  00000+0  00000+0 0  9991
2 37185   0.0240 288.7646 0000957 319.3081 142.1150  1.00273104 46449
GLOBALSTAR M079         
1 37188U 10054A   23164.10253052 -.00000094  00000+0  55997-4 0  9993
2 37188  52.0016 217.5034 0000450 143.3236 235.6647 12.62265737584300
GLOBALSTAR M074         
1 37189U 10054B   23164.12898516 -.00000086  00000+0  10006-3 0  9998
2 37189  51.9992 216.8605 0000279 163.4347 215.1988 12.62267967584301
GLOBALSTAR M076         
1 37190U 10054C   23163.87244500 -.00000082  00000+0  11876-3 0  9991
2 37190  52.0005 217.7456 0000762 167.3410   4.8428 12.62275722583911
GLOBALSTAR M077         
1 37191U 10054D   23163.77988741 -.00000091  00000+0  69326-4 0  9997
2 37191  52.0039 174.6707 0000037 221.9307 309.3727 12.62268937584271
GLOBALSTAR M075         
1 37192U 10054E   23163.53360529 -.00000093  00000+0  59303-4 0  9996
2 37192  51.9946 261.4410 0000805 128.6429 244.1830 12.62268959583100
GLOBALSTAR M073         
1 37193U 10054F   23163.80611361 -.00000084  00000+0  10897-3 0  9994
2 37193  52.0027 173.8696 0000035 180.4311 350.8589 12.62265327584963
BSAT-3B                 
1 37207U 10056B   23163.97688373 -.00000350  00000+0  00000+0 0  9994
2 37207   0.0585 308.9426 0002284  49.0631   4.5755  1.00268979 46244
BEIDOU-2 G4             
1 37210U 10057A   23163.80602200 -.00000112  00000+0  00000+0 0  9992
2 37210   1.0043  55.9931 0002296 147.6368 147.4377  1.00271630 46259
FENGYUN 3B              
1 37214U 10059A   23164.17420253  .00000121  00000+0  87071-4 0  9992
2 37214  99.0833 181.4771 0023140  59.1220  28.9307 14.14345613651945
COSMO-SKYMED 4          
1 37216U 10060A   23164.15723471  .00000585  00000+0  80047-4 0  9992
2 37216  97.8884 347.6920 0001520  95.1131 265.0256 14.82161785681682
SKYTERRA 1              
1 37218U 10061A   23164.16618830 -.00000120  00000+0  00000+0 0  9990
2 37218   2.9534  42.6571 0002478 357.9243 179.1833  1.00272357 46194
ZHONGXING-20A           
1 37234U 10064A   23163.85577177  .00000006  00000+0  00000+0 0  9996
2 37234   4.3969 102.0970 0019738 238.6510 278.1620  0.98415503 45936
HYLAS 1                 
1 37237U 10065A   23164.06365010  .00000090  00000+0  00000+0 0  9998
2 37237   2.8318  86.2509 0002020 354.9615 216.5971  1.00270585 45977
INTELSAT 17 (IS-17)     
1 37238U 10065B   23164.09563069 -.00000001  00000+0  00000+0 0  9999
2 37238   0.0110 285.7321 0002524 164.9960 270.8526  1.00272399 45892
BEIDOU-2 IGSO-2         
1 37256U 10068A   23164.17260801 -.00000234  00000+0  00000+0 0  9997
2 37256  49.5603 285.3129 0027746 201.4149 302.7510  1.00252909 45756
EUTELSAT KA-SAT 9A      
1 37258U 10069A   23163.84766543  .00000061  00000+0  00000+0 0  9994
2 37258   0.0597 311.4018 0005219 155.4912 108.1478  1.00270364 32962
HISPASAT 30W-5          
1 37264U 10070A   23164.09762396 -.00000216  00000+0  00000+0 0  9996
2 37264   0.0296 152.1956 0005083 318.1690 155.9202  1.00270148 45639
KOREASAT 6              
1 37265U 10070B   23163.90259281 -.00000362  00000+0  00000+0 0  9992
2 37265   0.0477 131.7158 0001747 333.8576 236.3156  1.00271066 45731
BEIDOU-2 IGSO-3         
1 37384U 11013A   23163.69556804 -.00000214  00000+0  00000+0 0  9995
2 37384  60.8136  50.7096 0022714 177.9038  28.0656  1.00260002 44623
RESOURCESAT-2           
1 37387U 11015A   23164.17923463  .00000177  00000+0  10005-3 0  9990
2 37387  98.6217 234.2876 0005614 104.7913 255.3887 14.21668555630411
YOUTHSAT                
1 37388U 11015B   23163.79725344  .00000251  00000+0  12559-3 0  9995
2 37388  98.2989 178.5651 0014199 339.3379 193.9288 14.24596918630907
X-SAT                   
1 37389U 11015C   23164.12981420  .00000129  00000+0  73102-4 0  9999
2 37389  98.3014 183.4185 0013603 339.1263  20.9360 14.24532636631542
INTELSAT NEW DAWN       
1 37392U 11016A   23163.85237233  .00000155  00000+0  00000+0 0  9990
2 37392   0.0135 343.7868 0000581  41.6963 215.0850  1.00270161 42259
YAHSAT 1A               
1 37393U 11016B   23163.85629476  .00000101  00000+0  00000+0 0  9996
2 37393   0.0199 346.4867 0002717 123.3236 151.8580  1.00270521 31371
SBIRS GEO-1 (USA 230)   
1 37481U 11019A   23163.85890216 -.00000005  00000+0  00000+0 0  9993
2 37481   2.3455  39.7852 0001740  41.1172 194.9158  1.00272091 44362
TELSTAR 14R             
1 37602U 11021A   23164.18281564 -.00000279  00000+0  00000+0 0  9991
2 37602   0.0161  25.3254 0001734  30.4670 208.2420  1.00269951 44755
